47275
1 47275U 20100T   21318.54757887  .00000447  00000-0  12064-2 0  9994
2 47275 087.8631 307.2556 0003159 137.9629 199.6387 13.12338230231925
